      2.10          N: GNSS NAV DATA                        RINEX VERSION / TYPE
fic2rin                                 11/01/2020 00:17:30 PGM / RUN BY / DATE
                                                            END OF HEADER
26 20 10 31 10  0  0.0 3.041541203856e-04 6.139089236967e-12 0.000000000000e+00
    4.200000000000e+01 5.134375000000e+01 5.204145344971e-09-1.652452809349e-01
    2.721324563026e-06 5.169500131160e-03 2.061948180199e-06 5.153697906494e+03
    5.544000000000e+05 5.401670932770e-08-1.824160675728e+00 3.352761268616e-08
    9.443913055057e-01 3.286562500000e+02 2.015871050264e-01-8.733935232031e-09
    2.567964108870e-10 1.000000000000e+00 2.129000000000e+03 0.000000000000e+00
    2.400000000000e+00 0.000000000000e+00 6.984919309616e-09 4.200000000000e+01
    5.472000000000e+05 4.000000000000e+00
31 20 10 31 10  0  0.0-7.842620834708e-05-2.387423592154e-12 0.000000000000e+00
    1.070000000000e+02 8.468750000000e+01 4.224818837805e-09 9.811533893884e-01
    4.651024937630e-06 9.815948666073e-03 1.049228012562e-05 5.153691482544e+03
    5.544000000000e+05-2.235174179077e-08-2.807157286306e+00 1.974403858185e-07
    9.573402356463e-01 1.734375000000e+02 1.856962495542e-01-7.904614973228e-09
    8.000333245992e-11 1.000000000000e+00 2.129000000000e+03 0.000000000000e+00
    3.400000000000e+00 0.000000000000e+00-1.303851604462e-08 1.070000000000e+02
    5.472000000000e+05 4.000000000000e+00
19 20 10 31 10  0  0.0-8.457479998469e-05 5.002220859751e-12 0.000000000000e+00
    1.200000000000e+02-1.045937500000e+02 4.142315401206e-09 3.864944335817e-01
   -5.470588803291e-06 9.054192574695e-03 8.115544915199e-06 5.153600025177e+03
    5.544000000000e+05-8.940696716309e-08-6.340971498801e-01-1.676380634308e-08
    9.817777438067e-01 2.368750000000e+02 1.741365700585e+00-8.048549540109e-09
   -3.242992226500e-10 1.000000000000e+00 2.129000000000e+03 0.000000000000e+00
    2.400000000000e+00 0.000000000000e+00-1.536682248116e-08 1.200000000000e+02
    5.472000000000e+05 4.000000000000e+00
21 20 10 31 10  0  0.0 6.341096013784e-05 3.865352482535e-12 0.000000000000e+00
    8.500000000000e+01 3.781250000000e+00 4.409469386385e-09-1.585149697790e+00
    5.550682544708e-07 2.384967042599e-02 1.182965934277e-05 5.155004755020e+03
    5.544000000000e+05-3.408640623093e-07 2.387008656377e-01 5.271285772324e-07
    9.552873300203e-01 1.531250000000e+02-1.270598596846e+00-7.914615389785e-09
    3.057270204718e-10 1.000000000000e+00 2.129000000000e+03 0.000000000000e+00
    2.400000000000e+00 0.000000000000e+00-1.024454832077e-08 8.500000000000e+01
    5.472000000000e+05 4.000000000000e+00
18 20 10 31 10  0  0.0 3.150021657348e-04 5.343281372916e-12 0.000000000000e+00
    1.190000000000e+02-4.718750000000e+00 4.295893226910e-09 2.322124184353e+00
   -1.210719347000e-07 1.143031753600e-03 1.198239624500e-05 5.153713409424e+03
    5.544000000000e+05 4.097819328308e-08 3.316211020357e-01 1.061707735062e-07
    9.659621818022e-01 1.519375000000e+02 2.869426956110e+00-7.842112369743e-09
    4.185888644778e-10 1.000000000000e+00 2.129000000000e+03 0.000000000000e+00
    2.400000000000e+00 0.000000000000e+00-8.381903171539e-09 1.190000000000e+02
    5.472000000000e+05 4.000000000000e+00
28 20 10 31 10  0  0.0 6.612483412027e-04-4.661160346586e-12 0.000000000000e+00
    8.200000000000e+01 2.606250000000e+01 4.597691512306e-09-1.332933066607e+00
    1.801177859306e-06 1.842808246147e-02 2.335757017136e-06 5.153662998199e+03
    5.544000000000e+05-2.719461917877e-07-1.692493326295e+00 2.980232238770e-07
    9.751982112284e-01 3.475000000000e+02-1.382998095102e+00-8.483567660360e-09
    2.246522148093e-10 1.000000000000e+00 2.129000000000e+03 0.000000000000e+00
    2.400000000000e+00 0.000000000000e+00-1.117587089539e-08 8.200000000000e+01
    5.472000000000e+05 4.000000000000e+00
27 20 10 31 10  0  0.0-3.122724592686e-06-8.526512829121e-12 0.000000000000e+00
    1.810000000000e+02-1.092812500000e+02 4.208032424298e-09-2.079997865311e+00
   -5.841255187988e-06 8.471604320221e-03 6.590038537979e-06 5.153672744751e+03
    5.544000000000e+05 6.332993507385e-08-7.388846479571e-01-1.229345798492e-07
    9.773478581641e-01 2.600625000000e+02 5.690903705896e-01-7.911400970177e-09
   -1.878649681871e-10 1.000000000000e+00 2.129000000000e+03 0.000000000000e+00
    3.400000000000e+00 0.000000000000e+00 1.862645149231e-09 1.810000000000e+02
    5.472000000000e+05 4.000000000000e+00
23 20 10 31 10  0  0.0 9.404262527823e-05 5.343281372916e-12 0.000000000000e+00
    1.430000000000e+02 2.690625000000e+01 5.009137222100e-09 2.063175685469e+00
    1.398846507072e-06 1.085592200980e-03 4.542991518974e-06 5.153617929459e+03
    5.544000000000e+05 1.862645149231e-08 1.330624201519e+00-7.078051567078e-08
    9.615746637301e-01 2.901250000000e+02 2.053401622568e+00-8.333204254263e-09
    1.432202514126e-10 1.000000000000e+00 2.129000000000e+03 0.000000000000e+00
    2.400000000000e+00 0.000000000000e+00-8.381903171539e-09 3.990000000000e+02
    5.472000000000e+05 4.000000000000e+00
31 20 10 31  9 59 44.0-7.842900231481e-05-2.387423592154e-12 0.000000000000e+00
    3.000000000000e+00 8.468750000000e+01 4.224461680071e-09 9.788197410054e-01
    4.651024937630e-06 9.815946570598e-03 1.049228012562e-05 5.153691484451e+03
    5.543840000000e+05-2.235174179077e-08-2.807157170735e+00 1.974403858185e-07
    9.573402341834e-01 1.734375000000e+02 1.856962100554e-01-7.904614973228e-09
    8.036049019412e-11 1.000000000000e+00 2.129000000000e+03 0.000000000000e+00
    2.400000000000e+00 0.000000000000e+00-1.303851604462e-08 3.000000000000e+00
    5.487000000000e+05 4.000000000000e+00
19 20 10 31  9 59 44.0-8.457619696856e-05 5.002220859751e-12 0.000000000000e+00
    2.000000000000e+00-1.045937500000e+02 4.142315401206e-09 3.841605657610e-01
   -5.470588803291e-06 9.054194320925e-03 8.115544915199e-06 5.153600030899e+03
    5.543840000000e+05-8.940696716309e-08-6.340970138287e-01-1.676380634308e-08
    9.817777423437e-01 2.368750000000e+02 1.741365723992e+00-8.048549540109e-09
   -3.242992226500e-10 1.000000000000e+00 2.129000000000e+03 0.000000000000e+00
    2.400000000000e+00 0.000000000000e+00-1.536682248116e-08 2.000000000000e+00
    5.528100000000e+05 4.000000000000e+00
27 20 10 31  9 59 44.0-3.122724592686e-06-8.526512829121e-12 0.000000000000e+00
    4.800000000000e+01-1.092812500000e+02 4.208389582032e-09-2.082331610247e+00
   -5.841255187988e-06 8.471610373817e-03 6.590038537979e-06 5.153672754288e+03
    5.543840000000e+05 6.332993507385e-08-7.388845133687e-01-1.229345798492e-07
    9.773478479237e-01 2.600625000000e+02 5.690902901291e-01-7.911400970177e-09
   -1.875078104529e-10 1.000000000000e+00 2.129000000000e+03 0.000000000000e+00
    2.400000000000e+00 0.000000000000e+00 1.862645149231e-09 4.800000000000e+01
    5.543100000000e+05 4.000000000000e+00
 4 20 10 31 11 59 44.0-1.507643610239e-04-3.751665644813e-12 0.000000000000e+00
    5.000000000000e+00-4.453125000000e+01 4.532688804683e-09-1.582770011375e+00
   -2.346932888031e-06 8.855876512825e-04 8.599832653999e-06 5.153616491318e+03
    5.615840000000e+05-7.264316082001e-08 2.436020516981e+00-4.470348358154e-08
    9.601766743440e-01 2.138125000000e+02-3.007578097448e+00-7.967831892180e-09
   -6.189543533618e-10 1.000000000000e+00 2.129000000000e+03 0.000000000000e+00
    2.400000000000e+00 0.000000000000e+00-4.190951585770e-09 2.610000000000e+02
    5.544000000000e+05 4.000000000000e+00
19 20 10 31 11 59 44.0-8.453987538815e-05 5.002220859751e-12 0.000000000000e+00
    8.000000000000e+00-1.085937500000e+02 4.029453557200e-09 1.434254873718e+00
   -5.783513188362e-06 9.054657071829e-03 7.567927241325e-06 5.153602321625e+03
    5.615840000000e+05 2.980232238770e-08-6.341548927196e-01-2.048909664154e-07
    9.817764681421e-01 2.459062500000e+02 1.741494329120e+00-7.847112578022e-09
   -2.610823036973e-10 1.000000000000e+00 2.129000000000e+03 0.000000000000e+00
    2.400000000000e+00 0.000000000000e+00-1.536682248116e-08 8.000000000000e+00
    5.544000000000e+05 4.000000000000e+00
31 20 10 31 11 59 44.0-7.844623178244e-05-2.387423592154e-12 0.000000000000e+00
    5.600000000000e+01 8.990625000000e+01 4.216961367653e-09 2.028751640186e+00
    4.770234227180e-06 9.816741338000e-03 1.171790063381e-05 5.153695911407e+03
    5.615840000000e+05-9.685754776001e-08-2.807213759332e+00 9.126961231232e-08
    9.573404843424e-01 1.547187500000e+02 1.859297985738e-01-7.882114035973e-09
    2.428672592533e-11 1.000000000000e+00 2.129000000000e+03 0.000000000000e+00
    2.400000000000e+00 0.000000000000e+00-1.303851604462e-08 5.600000000000e+01
    5.544000000000e+05 4.000000000000e+00
27 20 10 31 11 59 44.0-3.183726221323e-06-8.526512829121e-12 0.000000000000e+00
    5.900000000000e+01-1.127812500000e+02 4.220532944995e-09-1.032115738186e+00
   -5.818903446198e-06 8.471841691062e-03 6.407499313354e-06 5.153673341751e+03
    5.615840000000e+05 2.458691596985e-07-7.389410024874e-01 5.587935447693e-09
    9.773457427846e-01 2.622500000000e+02 5.690533119489e-01-8.043192174096e-09
   -3.117987019532e-10 1.000000000000e+00 2.129000000000e+03 0.000000000000e+00
    2.400000000000e+00 0.000000000000e+00 1.862645149231e-09 5.900000000000e+01
    5.544000000000e+05 4.000000000000e+00
 2 20 10 31 12  0  0.0-5.366243422031e-04-4.888534022029e-12 0.000000000000e+00
    1.010000000000e+02-1.528125000000e+01 4.224461680071e-09-3.009110226182e+00
   -7.469207048416e-07 1.996822573710e-02 1.199357211590e-05 5.153550956726e+03
    5.616000000000e+05 3.296881914139e-07 2.372549715362e-01 4.470348358154e-08
    9.612339281657e-01 1.416562500000e+02-1.589698937067e+00-7.477811480863e-09
    3.621579424748e-10 1.000000000000e+00 2.129000000000e+03 0.000000000000e+00
    2.400000000000e+00 0.000000000000e+00-1.769512891769e-08 1.010000000000e+02
    5.544000000000e+05 4.000000000000e+00
